start=new Date('2022-04-12T00:00:00.000Z').valueOf();
sats=[{"LAUNCH_DATE":"2020-08-07","REV_AT_EPOCH":"9383","OBJECT_NAME":"STARLINK-1530","RCS_SIZE":"LARGE","MEAN_MOTION_DOT":"0.00001185","CLASSIFICATION_TYPE":"U","EPOCH":"2022-04-11T21:04:23.634912","OBJECT_ID":"2020-055Y","ARG_OF_PERICENTER":"64.3937","PERIOD":"95.594","MEAN_ELEMENT_THEORY":"SGP4","MEAN_MOTION":"15.06378220","APOAPSIS":"548.391","ECCENTRICITY":"0.00016040","TLE_LINE2":"2 46049  53.0563  46.3195 0001604  64.3937 295.7217 15.06378220 93838","NORAD_CAT_ID":"46049","MEAN_MOTION_DDOT":"0.0000000000000","ELEMENT_SET_NO":"999","TIME_SYSTEM":"UTC","BSTAR":"0.00009847100000","OBJECT_TYPE":"PAYLOAD","EPHEMERIS_TYPE":"0","RA_OF_ASC_NODE":"46.3195","TLE_LINE1":"1 46049U 20055Y   22101.87805133  .00001185  00000-0  98471-4 0  9994","SITE":"AFETR","REF_FRAME":"TEME","CENTER_NAME":"EARTH","GP_ID":"201014944","FILE":"3397723","DECAY_DATE":null,"COUNTRY_CODE":"US","MEAN_ANOMALY":"295.7217","INCLINATION":"53.0563","PERIAPSIS":"546.169","SEMIMAJOR_AXIS":"6925.415"},{"CENTER_NAME":"EARTH","GP_ID":"201015694","TLE_LINE1":"1 46051U 20055AA  22101.84854293  .00002752  00000-0  20356-3 0  9992","SITE":"AFETR","REF_FRAME":"TEME","SEMIMAJOR_AXIS":"6925.341","PERIAPSIS":"546.168","FILE":"3397723","DECAY_DATE":null,"COUNTRY_CODE":"US","INCLINATION":"53.0545","MEAN_ANOMALY":"291.1159","BSTAR":"0.00020356000000","OBJECT_TYPE":"PAYLOAD","EPHEMERIS_TYPE":"0","MEAN_MOTION_DDOT":"0.0000000000000","NORAD_CAT_ID":"46051","ELEMENT_SET_NO":"999","TIME_SYSTEM":"UTC","RA_OF_ASC_NODE":"46.4439","EPOCH":"2022-04-11T20:21:54.109152","APOAPSIS":"548.243","ECCENTRICITY":"0.00014980","TLE_LINE2":"2 46051  53.0545  46.4439 0001498  68.9990 291.1159 15.06402537 93837","OBJECT_ID":"2020-055AA","ARG_OF_PERICENTER":"68.9990","MEAN_ELEMENT_THEORY":"SGP4","PERIOD":"95.592","MEAN_MOTION":"15.06402537","REV_AT_EPOCH":"9383","OBJECT_NAME":"STARLINK-1540","RCS_SIZE":"LARGE","LAUNCH_DATE":"2020-08-07","MEAN_MOTION_DOT":"0.00002752","CLASSIFICATION_TYPE":"U"},{"NORAD_CAT_ID":"46052","MEAN_MOTION_DDOT":"0.0000000000000","ELEMENT_SET_NO":"999","TIME_SYSTEM":"UTC","BSTAR":"0.00000288970000","OBJECT_TYPE":"PAYLOAD","EPHEMERIS_TYPE":"0","RA_OF_ASC_NODE":"46.4990","TLE_LINE1":"1 46052U 20055AB  22101.83381570 -.00000239  00000-0  28897-5 0  9994","SITE":"AFETR","REF_FRAME":"TEME","CENTER_NAME":"EARTH","GP_ID":"201014442","FILE":"3397723","DECAY_DATE":null,"COUNTRY_CODE":"US","INCLINATION":"53.0536","MEAN_ANOMALY":"281.1923","PERIAPSIS":"546.047","SEMIMAJOR_AXIS":"6925.403","LAUNCH_DATE":"2020-08-07","REV_AT_EPOCH":"9379","OBJECT_NAME":"STARLINK-1541","RCS_SIZE":"LARGE","MEAN_MOTION_DOT":"-0.00000239","CLASSIFICATION_TYPE":"U","EPOCH":"2022-04-11T20:00:41.676480","ARG_OF_PERICENTER":"78.9264","OBJECT_ID":"2020-055AB","MEAN_ELEMENT_THEORY":"SGP4","PERIOD":"95.593","MEAN_MOTION":"15.06382303","APOAPSIS":"548.489","ECCENTRICITY":"0.00017630","TLE_LINE2":"2 46052  53.0536  46.4990 0001763  78.9264 281.1923 15.06382303 93791"},{"CLASSIFICATION_TYPE":"U","MEAN_MOTION_DOT":"0.00000108","LAUNCH_DATE":"2020-08-07","REV_AT_EPOCH":"9382","RCS_SIZE":"LARGE","OBJECT_NAME":"STARLINK-1543","MEAN_ELEMENT_THEORY":"SGP4","PERIOD":"95.593","ARG_OF_PERICENTER":"73.3304","OBJECT_ID":"2020-055AC","MEAN_MOTION":"15.06380416","ECCENTRICITY":"0.00015640","APOAPSIS":"548.357","TLE_LINE2":"2 46053  53.0572  46.4872 0001564  73.3304 286.7856 15.06380416 93827","EPOCH":"2022-04-11T20:06:00.404352","RA_OF_ASC_NODE":"46.4872","TIME_SYSTEM":"UTC","ELEMENT_SET_NO":"999","NORAD_CAT_ID":"46053","MEAN_MOTION_DDOT":"0.0000000000000","BSTAR":"0.00002615700000","EPHEMERIS_TYPE":"0","OBJECT_TYPE":"PAYLOAD","DECAY_DATE":null,"FILE":"3397723","INCLINATION":"53.0572","MEAN_ANOMALY":"286.7856","COUNTRY_CODE":"US","SEMIMAJOR_AXIS":"6925.409","PERIAPSIS":"546.190","TLE_LINE1":"1 46053U 20055AC  22101.83750468  .00000108  00000-0  26157-4 0  9991","REF_FRAME":"TEME","SITE":"AFETR","GP_ID":"201014692","CENTER_NAME":"EARTH"},{"LAUNCH_DATE":"2020-08-07","OBJECT_NAME":"STARLINK-1548","RCS_SIZE":"LARGE","REV_AT_EPOCH":"9324","MEAN_MOTION_DOT":"-0.00000468","CLASSIFICATION_TYPE":"U","EPOCH":"2022-04-11T13:54:26.833536","MEAN_MOTION":"15.06387670","OBJECT_ID":"2020-055AD","ARG_OF_PERICENTER":"60.6585","PERIOD":"95.593","MEAN_ELEMENT_THEORY":"SGP4","TLE_LINE2":"2 46054  53.0562  47.6514 0001734  60.6585 299.4577 15.06387670 93248","APOAPSIS":"548.452","ECCENTRICITY":"0.00017340","NORAD_CAT_ID":"46054","MEAN_MOTION_DDOT":"0.0000000000000","ELEMENT_SET_NO":"999","TIME_SYSTEM":"UTC","OBJECT_TYPE":"PAYLOAD","EPHEMERIS_TYPE":"0","BSTAR":"-0.00001249400000","RA_OF_ASC_NODE":"47.6514","SITE":"AFETR","REF_FRAME":"TEME","TLE_LINE1":"1 46054U 20055AD  22101.57947724 -.00000468  00000-0 -12494-4 0  9996","GP_ID":"200991404","CENTER_NAME":"EARTH","COUNTRY_CODE":"US","INCLINATION":"53.0562","MEAN_ANOMALY":"299.4577","FILE":"3397564","DECAY_DATE":null,"PERIAPSIS":"546.050","SEMIMAJOR_AXIS":"6925.386"},{"DECAY_DATE":null,"FILE":"3397723","MEAN_ANOMALY":"289.8952","INCLINATION":"53.0552","COUNTRY_CODE":"US","PERIAPSIS":"546.085","SEMIMAJOR_AXIS":"6925.397","TLE_LINE1":"1 46055U 20055AE  22101.83012766 -.00001393  00000-0 -74641-4 0  9995","REF_FRAME":"TEME","SITE":"AFETR","GP_ID":"201015195","CENTER_NAME":"EARTH","RA_OF_ASC_NODE":"46.5419","ELEMENT_SET_NO":"999","TIME_SYSTEM":"UTC","MEAN_MOTION_DDOT":"0.0000000000000","NORAD_CAT_ID":"46055","BSTAR":"-0.00007464100000","EPHEMERIS_TYPE":"0","OBJECT_TYPE":"PAYLOAD","PERIOD":"95.593","MEAN_ELEMENT_THEORY":"SGP4","OBJECT_ID":"2020-055AE","ARG_OF_PERICENTER":"70.2220","MEAN_MOTION":"15.06384253","ECCENTRICITY":"0.00016990","APOAPSIS":"548.438","TLE_LINE2":"2 46055  53.0552  46.5419 0001699  70.2220 289.8952 15.06384253 93821","EPOCH":"2022-04-11T19:55:23.029824","CLASSIFICATION_TYPE":"U","MEAN_MOTION_DOT":"-0.00001393","LAUNCH_DATE":"2020-08-07","REV_AT_EPOCH":"9382","RCS_SIZE":"LARGE","OBJECT_NAME":"STARLINK-1554"},{"EPOCH":"2022-04-11T20:27:13.836672","ECCENTRICITY":"0.00017980","APOAPSIS":"548.513","TLE_LINE2":"2 46056  53.0550  46.4263 0001798  54.7282 305.3875 15.06382249 93833","MEAN_ELEMENT_THEORY":"SGP4","PERIOD":"95.593","ARG_OF_PERICENTER":"54.7282","OBJECT_ID":"2020-055AF","MEAN_MOTION":"15.06382249","REV_AT_EPOCH":"9383","RCS_SIZE":"LARGE","OBJECT_NAME":"STARLINK-1561","LAUNCH_DATE":"2020-08-07","CLASSIFICATION_TYPE":"U","MEAN_MOTION_DOT":"-0.00002530","CENTER_NAME":"EARTH","GP_ID":"201013943","TLE_LINE1":"1 46056U 20055AF  22101.85224348 -.00002530  00000-0 -15106-3 0  9993","REF_FRAME":"TEME","SITE":"AFETR","SEMIMAJOR_AXIS":"6925.403","PERIAPSIS":"546.023","DECAY_DATE":null,"FILE":"3397723","MEAN_ANOMALY":"305.3875","INCLINATION":"53.0550","COUNTRY_CODE":"US","BSTAR":"-0.00015106000000","EPHEMERIS_TYPE":"0","OBJECT_TYPE":"PAYLOAD","ELEMENT_SET_NO":"999","TIME_SYSTEM":"UTC","MEAN_MOTION_DDOT":"0.0000000000000","NORAD_CAT_ID":"46056","RA_OF_ASC_NODE":"46.4263"},{"EPOCH":"2022-04-11T03:12:12.500928","MEAN_MOTION":"15.06391640","OBJECT_ID":"2020-055AH","ARG_OF_PERICENTER":"72.3715","PERIOD":"95.593","MEAN_ELEMENT_THEORY":"SGP4","TLE_LINE2":"2 46058  53.0560  49.6454 0001435  72.3715 287.7430 15.06391640 93710","APOAPSIS":"548.233","ECCENTRICITY":"0.00014350","LAUNCH_DATE":"2020-08-07","OBJECT_NAME":"STARLINK-1564","RCS_SIZE":"LARGE","REV_AT_EPOCH":"9371","MEAN_MOTION_DOT":"-0.00000988","CLASSIFICATION_TYPE":"U","SITE":"AFETR","REF_FRAME":"TEME","TLE_LINE1":"1 46058U 20055AH  22101.13347802 -.00000988  00000-0 -47427-4 0  9994","GP_ID":"200982127","CENTER_NAME":"EARTH","COUNTRY_CODE":"US","INCLINATION":"53.0560","MEAN_ANOMALY":"287.7430","FILE":"3397378","DECAY_DATE":null,"PERIAPSIS":"546.245","SEMIMAJOR_AXIS":"6925.374","NORAD_CAT_ID":"46058","MEAN_MOTION_DDOT":"0.0000000000000","TIME_SYSTEM":"UTC","ELEMENT_SET_NO":"999","OBJECT_TYPE":"PAYLOAD","EPHEMERIS_TYPE":"0","BSTAR":"-0.00004742700000","RA_OF_ASC_NODE":"49.6454"},{"RA_OF_ASC_NODE":"47.8310","BSTAR":"-0.00007208900000","OBJECT_TYPE":"PAYLOAD","EPHEMERIS_TYPE":"0","NORAD_CAT_ID":"46059","MEAN_MOTION_DDOT":"0.0000000000000","ELEMENT_SET_NO":"999","TIME_SYSTEM":"UTC","PERIAPSIS":"546.267","SEMIMAJOR_AXIS":"6925.396","FILE":"3397378","DECAY_DATE":null,"COUNTRY_CODE":"US","INCLINATION":"53.0584","MEAN_ANOMALY":"299.2426","GP_ID":"200982879","CENTER_NAME":"EARTH","TLE_LINE1":"1 46059U 20055AJ  22101.53893906 -.00001355  00000-0 -72089-4 0  9991","SITE":"AFETR","REF_FRAME":"TEME","MEAN_MOTION_DOT":"-0.00001355","CLASSIFICATION_TYPE":"U","REV_AT_EPOCH":"9373","OBJECT_NAME":"STARLINK-1570","RCS_SIZE":"LARGE","LAUNCH_DATE":"2020-08-07","APOAPSIS":"548.255","ECCENTRICITY":"0.00014350","TLE_LINE2":"2 46059  53.0584  47.8310 0001435  60.8706 299.2426 15.06384509 93731","ARG_OF_PERICENTER":"60.8706","OBJECT_ID":"2020-055AJ","PERIOD":"95.593","MEAN_ELEMENT_THEORY":"SGP4","MEAN_MOTION":"15.06384509","EPOCH":"2022-04-11T12:56:04.334784"},{"TLE_LINE2":"2 46060  53.0564  49.0424 0001641  47.9373 312.1755 15.06402169 93706","APOAPSIS":"548.343","ECCENTRICITY":"0.00016410","MEAN_MOTION":"15.06402169","OBJECT_ID":"2020-055AK","ARG_OF_PERICENTER":"47.9373","PERIOD":"95.592","MEAN_ELEMENT_THEORY":"SGP4","EPOCH":"2022-04-11T06:28:34.729824","MEAN_MOTION_DOT":"0.00000511","CLASSIFICATION_TYPE":"U","OBJECT_NAME":"STARLINK-1572","RCS_SIZE":"LARGE","REV_AT_EPOCH":"9370","LAUNCH_DATE":"2020-08-07","PERIAPSIS":"546.070","SEMIMAJOR_AXIS":"6925.342","COUNTRY_CODE":"US","MEAN_ANOMALY":"312.1755","INCLINATION":"53.0564","FILE":"3397378","DECAY_DATE":null,"CENTER_NAME":"EARTH","GP_ID":"200983610","SITE":"AFETR","REF_FRAME":"TEME","TLE_LINE1":"1 46060U 20055AK  22101.26984641  .00000511  00000-0  53190-4 0  9993","RA_OF_ASC_NODE":"49.0424","OBJECT_TYPE":"PAYLOAD","EPHEMERIS_TYPE":"0","BSTAR":"0.00005319000000","MEAN_MOTION_DDOT":"0.0000000000000","NORAD_CAT_ID":"46060","TIME_SYSTEM":"UTC","ELEMENT_SET_NO":"999"}];
